STARLINK-2547
1 18286C 21036L   21326.16007383 -.00018261  00000-0 -12234-2 0  3260
2 18286  53.0552 283.0172 0001746  63.9477   9.4366 15.06419143    10
